NORAD_CAT_ID,OBJECT_NAME,OBJECT_TYPE,EPOCH,MEAN_MOTION,ECCENTRICITY,INCLINATION,RA_OF_ASC_NODE,ARG_OF_PERICENTER,MEAN_ANOMALY,BSTAR,MEAN_MOTION_DOT,MEAN_MOTION_DDOT,TLE_LINE0,TLE_LINE1,TLE_LINE2,SEMIMAJOR_AXIS,PERIOD,APOGEE,PERIGEE,DECAYED
53404.0,STARLINK-4509,PAYLOAD,2024-04-17 21:31:01,15.08837437,0.0001544,53.2182,335.1447,81.9789,278.1379,3.0554e-05,1.98e-06,0.0,0 STARLINK-4509,1 53404U 22097S   24108.89654731  .00000198  00000-0  30554-4 0  9993,2 53404  53.2182 335.1447 0001544  81.9789 278.1379 15.08837437 93872,6917.888,95.438,540.821,538.685,0.0
53404.0,STARLINK-4509,PAYLOAD,2024-04-18 21:21:49,15.08831914,0.0001311,53.2179,330.6797,103.643,256.4708,1.5083e-05,-4.8e-07,0.0,0 STARLINK-4509,1 53404U 22097S   24109.89015529 -.00000048  00000-0  15083-4 0  9995,2 53404  53.2179 330.6797 0001311 103.6430 256.4708 15.08831914 94020,6917.905,95.438,540.677,538.863,0.0
53404.0,STARLINK-4509,PAYLOAD,2024-04-19 00:32:35,15.08837135,0.0001271,53.2179,330.0873,84.7755,275.3382,-1.8125e-05,-5.76e-06,0.0,0 STARLINK-4509,1 53404U 22097S   24110.02263462 -.00000576  00000-0 -18125-4 0  9990,2 53404  53.2179 330.0873 0001271  84.7755 275.3382 15.08837135 94538,6917.889,95.438,540.633,538.875,0.0
53404.0,STARLINK-4509,PAYLOAD,2024-04-19 21:12:36,15.08854351,0.000146,53.2184,326.2221,89.2315,270.8845,0.00058206,8.991e-05,0.0,0 STARLINK-4509,1 53404U 22097S   24110.88375220  .00008991  00000-0  58206-3 0  9990,2 53404  53.2184 326.2221 0001460  89.2315 270.8845 15.08854351 94173,6917.837,95.437,540.712,538.692,0.0
53404.0,STARLINK-4509,PAYLOAD,2024-04-20 14:41:50,15.08852123,0.0001661,53.219,322.9522,98.5128,261.6053,0.00029619,4.431e-05,0.0,0 STARLINK-4509,1 53404U 22097S   24111.61238889  .00004431  00000-0  29619-3 0  9992,2 53404  53.2190 322.9522 0001661  98.5128 261.6053 15.08852123 94775,6917.843,95.437,540.857,538.559,0.0
53404.0,STARLINK-4509,PAYLOAD,2024-04-20 19:28:00,15.08831274,0.0001573,53.2181,322.0588,109.261,250.8553,-0.00030071,-5.069e-05,0.0,0 STARLINK-4509,1 53404U 22097S   24111.81111238 -.00005069  00000-0 -30071-3 0  9996,2 53404  53.2181 322.0588 0001573 109.2610 250.8553 15.08831274 94315,6917.907,95.438,540.86,538.684,0.0
53404.0,STARLINK-4509,PAYLOAD,2024-04-21 12:57:14,15.0883206,0.0001375,53.2174,318.7855,109.8337,250.2803,0.00014278,1.985e-05,0.0,0 STARLINK-4509,1 53404U 22097S   24112.53975578  .00001985  00000-0  14278-3 0  9993,2 53404  53.2174 318.7855 0001375 109.8337 250.2803 15.08832060 94910,6917.905,95.438,540.721,538.818,0.0
53404.0,STARLINK-4509,PAYLOAD,2024-04-21 19:18:46,15.08893211,0.000164,53.217,317.5902,94.3148,265.8032,0.0017944,0.00028427,0.0,0 STARLINK-4509,1 53404U 22097S   24112.80470082  .00028427  00000-0  17944-2 0  9995,2 53404  53.2170 317.5902 0001640  94.3148 265.8032 15.08893211 94460,6917.718,95.434,540.717,538.448,0.0
53404.0,STARLINK-4509,PAYLOAD,2024-04-22 20:44:57,15.08844425,9.72e-05,53.2168,312.8418,93.9498,266.1605,0.00047977,7.357e-05,0.0,0 STARLINK-4509,1 53404U 22097S   24113.86455015  .00007357  00000-0  47977-3 0  9990,2 53404  53.2168 312.8418 0000972  93.9498 266.1605 15.08844425 94628,6917.867,95.437,540.404,539.059,0.0
53404.0,STARLINK-4509,PAYLOAD,2024-04-23 20:35:45,15.08831636,0.0001227,53.2172,308.3836,70.7174,289.3951,0.00021566,3.145e-05,0.0,0 STARLINK-4509,1 53404U 22097S   24114.85816102  .00003145  00000-0  21566-3 0  9995,2 53404  53.2172 308.3836 0001227  70.7174 289.3951 15.08831636 94772,6917.906,95.438,540.62,538.922,0.0
53404.0,STARLINK-4509,PAYLOAD,2024-04-23 22:11:08,15.08834917,0.0001285,53.2174,308.0858,75.2562,284.8573,0.00014744,2.059e-05,0.0,0 STARLINK-4509,1 53404U 22097S   24114.92440016  .00002059  00000-0  14744-3 0  9993,2 53404  53.2174 308.0858 0001285  75.2562 284.8573 15.08834917 95271,6917.896,95.438,540.65,538.872,0.0
53404.0,STARLINK-4509,PAYLOAD,2024-04-24 12:29:36,15.08835729,0.0001164,53.2171,305.4107,78.6169,281.4953,0.0002694,4.002e-05,0.0,0 STARLINK-4509,1 53404U 22097S   24115.52056334  .00004002  00000-0  26940-3 0  9997,2 53404  53.2171 305.4107 0001164  78.6169 281.4953 15.08835729 95369,6917.893,95.438,540.564,538.953,0.0
53404.0,STARLINK-4509,PAYLOAD,2024-04-24 18:51:09,15.0883716,0.0001089,53.2168,304.2187,101.5348,258.5766,0.000213,3.103e-05,0.0,0 STARLINK-4509,1 53404U 22097S   24115.78552290  .00003103  00000-0  21300-3 0  9993,2 53404  53.2168 304.2187 0001089 101.5348 258.5766 15.08837160 95404,6917.889,95.438,540.507,539.001,0.0
53404.0,STARLINK-4509,PAYLOAD,2024-04-25 12:20:23,15.0884641,0.0001049,53.2163,300.9462,105.9739,254.1368,0.00032766,4.932e-05,0.0,0 STARLINK-4509,1 53404U 22097S   24116.51415979  .00004932  00000-0  32766-3 0  9996,2 53404  53.2163 300.9462 0001049 105.9739 254.1368 15.08846410 95022,6917.861,95.437,540.451,539.0,0.0
53404.0,STARLINK-4509,PAYLOAD,2024-04-25 18:41:55,15.08864155,0.0001125,53.2168,299.7568,78.4013,281.7105,0.00064781,0.00010044,0.0,0 STARLINK-4509,1 53404U 22097S   24116.77911446  .00010044  00000-0  64781-3 0  9997,2 53404  53.2168 299.7568 0001125  78.4013 281.7105 15.08864155 95068,6917.807,95.436,540.45,538.893,0.0
53404.0,STARLINK-4509,PAYLOAD,2024-04-26 18:32:42,15.0883623,0.0001189,53.2186,295.299,91.0049,269.108,-0.00016831,-2.965e-05,0.0,0 STARLINK-4509,1 53404U 22097S   24117.77271678 -.00002965  00000-0 -16831-3 0  9992,2 53404  53.2186 295.2990 0001189  91.0049 269.1080 15.08836230 95210,6917.892,95.438,540.579,538.934,0.0
53404.0,STARLINK-4509,PAYLOAD,2024-04-27 12:01:57,15.08832999,0.0001345,53.2171,292.0241,89.9356,270.179,0.00016873,2.398e-05,0.0,0 STARLINK-4509,1 53404U 22097S   24118.50136123  .00002398  00000-0  16873-3 0  9993,2 53404  53.2171 292.0241 0001345  89.9356 270.1790 15.08832999 95813,6917.902,95.438,540.697,538.836,0.0
53404.0,STARLINK-4509,PAYLOAD,2024-04-27 21:34:16,15.08837824,0.0001413,53.2168,290.2412,70.1296,289.9848,0.00021886,3.197e-05,0.0,0 STARLINK-4509,1 53404U 22097S   24118.89880244  .00003197  00000-0  21886-3 0  9993,2 53404  53.2168 290.2412 0001413  70.1296 289.9848 15.08837824 95870,6917.887,95.438,540.73,538.775,0.0
53404.0,STARLINK-4509,PAYLOAD,2024-04-28 03:55:48,15.08846175,0.0001152,53.2178,289.0529,76.232,283.88,0.00083364,0.00013007,0.0,0 STARLINK-4509,1 53404U 22097S   24119.16376145  .00013007  00000-0  83364-3 0  9994,2 53404  53.2178 289.0529 0001152  76.2320 283.8800 15.08846175 95422,6917.862,95.437,540.523,538.93,0.0
53404.0,STARLINK-4509,PAYLOAD,2024-04-28 11:52:45,15.08849554,0.0003096,53.2168,287.5656,81.6411,278.4932,0.00059016,9.119e-05,0.0,0 STARLINK-4509,1 53404U 22097S   24119.49496728  .00009119  00000-0  59016-3 0  9996,2 53404  53.2168 287.5656 0003096  81.6411 278.4932 15.08849554 95964,6917.851,95.437,541.858,537.574,0.0
53404.0,STARLINK-4509,PAYLOAD,2024-04-28 18:14:18,15.0883039,0.0001392,53.2189,286.3792,90.164,269.9512,9.8986e-05,1.287e-05,0.0,0 STARLINK-4509,1 53404U 22097S   24119.75993076  .00001287  00000-0  98986-4 0  9991,2 53404  53.2189 286.3792 0001392  90.1640 269.9512 15.08830390 95519,6917.91,95.438,540.738,538.812,0.0
53404.0,STARLINK-4509,PAYLOAD,2024-04-29 03:46:36,15.08841268,0.0001255,53.2177,284.5928,84.7618,275.3517,0.00027904,4.156e-05,0.0,0 STARLINK-4509,1 53404U 22097S   24120.15736775  .00004156  00000-0  27904-3 0  9997,2 53404  53.2177 284.5928 0001255  84.7618 275.3517 15.08841268 95577,6917.877,95.437,540.61,538.873,0.0
53404.0,STARLINK-4509,PAYLOAD,2024-04-29 14:54:18,15.08834352,0.0001559,53.2187,282.5149,94.785,265.332,5.0304e-05,5.13e-06,0.0,0 STARLINK-4509,1 53404U 22097S   24120.62105273  .00000513  00000-0  50304-4 0  9996,2 53404  53.2187 282.5149 0001559  94.7850 265.3320 15.08834352 96137,6917.898,95.438,540.841,538.684,0.0
53404.0,STARLINK-4509,PAYLOAD,2024-04-29 19:40:28,15.08840877,0.0001583,53.2181,281.6214,91.5323,268.5851,0.00020157,2.922e-05,0.0,0 STARLINK-4509,1 53404U 22097S   24120.81977059  .00002922  00000-0  20157-3 0  9994,2 53404  53.2181 281.6214 0001583  91.5323 268.5851 15.08840877 96167,6917.878,95.437,540.838,538.648,0.0
53404.0,STARLINK-4509,PAYLOAD,2024-04-30 03:37:23,15.08844799,0.0001539,53.2185,280.1347,90.15,269.9668,0.00022327,3.268e-05,0.0,0 STARLINK-4509,1 53404U 22097S   24121.15096929  .00003268  00000-0  22327-3 0  9995,2 53404  53.2185 280.1347 0001539  90.1500 269.9668 15.08844799 95724,6917.866,95.437,540.795,538.666,0.0
53404.0,STARLINK-4509,PAYLOAD,2024-04-30 14:45:06,15.08836353,0.0001634,53.2188,278.0536,90.6622,269.4557,0.00013366,1.84e-05,0.0,0 STARLINK-4509,1 53404U 22097S   24121.61465486  .00001840  00000-0  13366-3 0  9991,2 53404  53.2188 278.0536 0001634  90.6622 269.4557 15.08836353 96280,6917.892,95.438,540.887,538.626,0.0
53404.0,STARLINK-4509,PAYLOAD,2024-04-30 17:55:52,15.08838674,0.0001484,53.2183,277.4576,88.6414,271.4749,0.00013891,1.923e-05,0.0,0 STARLINK-4509,1 53404U 22097S   24121.74713412  .00001923  00000-0  13891-3 0  9995,2 53404  53.2183 277.4576 0001484  88.6414 271.4749 15.08838674 95813,6917.884,95.438,540.776,538.723,0.0
53404.0,STARLINK-4509,PAYLOAD,2024-05-01 03:28:10,15.08850324,0.0001489,53.2181,275.6732,81.6146,278.5015,0.00028353,4.229e-05,0.0,0 STARLINK-4509,1 53404U 22097S   24122.14456872  .00004229  00000-0  28353-3 0  9995,2 53404  53.2181 275.6732 0001489  81.6146 278.5015 15.08850324 95871,6917.849,95.437,540.744,538.684,0.0
53404.0,STARLINK-4509,PAYLOAD,2024-05-01 09:49:43,15.08849064,0.0001497,53.2173,274.4856,82.9579,277.1584,0.0002882,4.303e-05,0.0,0 STARLINK-4509,1 53404U 22097S   24122.40952951  .00004303  00000-0  28820-3 0  9995,2 53404  53.2173 274.4856 0001497  82.9579 277.1584 15.08849064 96404,6917.853,95.437,540.753,538.682,0.0
53404.0,STARLINK-4509,PAYLOAD,2024-05-01 16:11:15,15.08846643,0.0001558,53.218,273.2958,82.0093,278.1076,0.00020707,3.01e-05,0.0,0 STARLINK-4509,1 53404U 22097S   24122.67448989  .00003010  00000-0  20707-3 0  9995,2 53404  53.2180 273.2958 0001558  82.0093 278.1076 15.08846643 95958,6917.86,95.437,540.803,538.647,0.0
